ORBCOMM FM24            
1 25478U 98053D   24237.72382272  .00002922  00000+0  10402-2 0  9995
2 25478  45.0066 232.9947 0002004 264.6067  95.4552 14.36200766354795
ORBCOMM FM25            
1 25479U 98053E   24237.69141353  .00003064  00000+0  10888-2 0  9991
2 25479  45.0059 231.3981 0003989 233.7059 126.3420 14.36189887355081
ORBCOMM FM26            
1 25480U 98053F   24237.67215912  .00002576  00000+0  93468-3 0  9997
2 25480  45.0053 226.0852 0006510 240.7447 119.2749 14.35543906355010
ORBCOMM FM27            
1 25481U 98053G   24237.68046759  .00003117  00000+0  11071-2 0  9991
2 25481  45.0042 231.7096 0002455 304.2912  55.7703 14.36173659355018
ORBCOMM FM28            
1 25482U 98053H   24237.91426471  .00003077  00000+0  10848-2 0  9997
2 25482  45.0048 168.7304 0004284 273.9191  86.1167 14.36572224355720
ORBCOMM FM30            
1 25980U 99065A   24237.90250835  .00002518  00000+0  91245-3 0  9992
2 25980  45.0321  50.6305 0005334 317.2955  42.7477 14.35687319291849
ORBCOMM FM31            
1 25981U 99065B   24237.86854875  .00002263  00000+0  82548-3 0  9995
2 25981  45.0236  44.4118 0002374 341.0565  19.0194 14.35671451291394
ORBCOMM FM32            
1 25982U 99065C   24237.85430718  .00002347  00000+0  87109-3 0  9992
2 25982  45.0160  59.0349 0004661 349.3868  10.6880 14.34682347292011
